O3B MPOWER F1           
1 54755U 22174A   24180.00611281 -.00000014  00000+0  00000+0 0  9990
2 54755   0.0608 353.3237 0006743 102.4934  30.8483  5.00114161 29377
